     2              NAVIGATION DATA                         RINEX VERSION / TYPE
CCRINEXN V1.6.0 UX  CDDIS               21-MAR-19 17:31     PGM / RUN BY / DATE 
IGS BROADCAST EPHEMERIS FILE                                COMMENT             
    0.1118D-07  0.7451D-08 -0.5960D-07 -0.5960D-07          ION ALPHA           
    0.9011D+05  0.0000D+00 -0.1966D+06 -0.6554D+05          ION BETA            
    0.000000000000D+00-0.266453525910D-14   503808     2045 DELTA-UTC: A0,A1,T,W
    18                                                      LEAP SECONDS        
                                                            END OF HEADER       
32 19  3 20  4  0  0.0-0.172664411366D-03 0.184172677109D-10 0.000000000000D+00
    0.970000000000D+02 0.355625000000D+02 0.438339675668D-08-0.473720138471D+00
    0.173784792423D-05 0.272787164431D-02 0.121872872114D-04 0.515377213478D+04
    0.273600000000D+06 0.260770320892D-07 0.354253398545D+00 0.000000000000D+00
    0.957281661869D+00 0.144531250000D+03-0.258590395849D+01-0.801569122188D-08
    0.348228779146D-09 0.100000000000D+01 0.204500000000D+04 0.000000000000D+00
    0.200000000000D+01 0.000000000000D+00 0.465661287308D-09 0.970000000000D+02
    0.266400000000D+06 0.000000000000D+00 0.000000000000D+00 0.000000000000D+00
 6 19  3 20  5 59 44.0 0.251010525972D-03-0.886757334229D-11 0.000000000000D+00
    0.110000000000D+02 0.251250000000D+02 0.492056217993D-08-0.209935957878D+01
    0.142864882946D-05 0.161587900948D-02 0.171177089214D-05 0.515354147530D+04
    0.280784000000D+06-0.391155481338D-07-0.173545153972D+01-0.316649675369D-07
    0.974055060709D+00 0.354593750000D+03-0.114916347577D+01-0.853785575572D-08
    0.196793914498D-09 0.100000000000D+01 0.204500000000D+04 0.000000000000D+00
    0.200000000000D+01 0.000000000000D+00 0.465661287308D-08 0.110000000000D+02
    0.278940000000D+06 0.000000000000D+00 0.000000000000D+00 0.000000000000D+00
 7 19  3 20  5 59 44.0 0.115013681352D-04-0.738964445190D-11 0.000000000000D+00
    0.130000000000D+02 0.209687500000D+02 0.507271114003D-08-0.290482549501D+01
    0.976026058197D-06 0.123388007050D-01 0.316463410854D-05 0.515359292793D+04
    0.280784000000D+06-0.372529029846D-08 0.142425546877D+01-0.178813934326D-06
    0.955644880365D+00 0.316625000000D+03-0.247345622636D+01-0.837820568478D-08
    0.159292343205D-09 0.100000000000D+01 0.204500000000D+04 0.000000000000D+00
    0.200000000000D+01 0.000000000000D+00-0.111758708954D-07 0.130000000000D+02
    0.000000000000D+00 0.000000000000D+00 0.000000000000D+00 0.000000000000D+00
 9 19  3 20  5 59 44.0 0.442455522716D-03-0.591171556152D-11 0.000000000000D+00
    0.320000000000D+02 0.465000000000D+02 0.446768622098D-08 0.209090076847D+00
    0.231526792049D-05 0.138396315742D-02 0.125765800476D-04 0.515372031975D+04
    0.280784000000D+06-0.819563865662D-07 0.347814683535D+00-0.391155481338D-07
    0.953006734361D+00 0.132531250000D+03 0.173411976932D+01-0.798140398217D-08
    0.350371731628D-09 0.100000000000D+01 0.204500000000D+04 0.000000000000D+00
    0.200000000000D+01 0.000000000000D+00 0.139698386192D-08 0.320000000000D+02
    0.000000000000D+00 0.000000000000D+00 0.000000000000D+00 0.000000000000D+00
17 19  3 20  5 59 44.0 0.261231325567D-04 0.579802872380D-11 0.000000000000D+00
    0.900000000000D+01 0.978750000000D+02 0.396337940245D-08-0.182916538431D+00
    0.497885048389D-05 0.129023682093D-01 0.115521252155D-04 0.515371525574D+04
    0.280784000000D+06-0.197440385819D-06-0.272699327863D+01 0.152736902237D-06
    0.984219890972D+00 0.175687500000D+03-0.171524853425D+01-0.797033194999D-08
    0.481805761954D-09 0.100000000000D+01 0.204500000000D+04 0.000000000000D+00
    0.200000000000D+01 0.000000000000D+00-0.111758708954D-07 0.900000000000D+01
    0.000000000000D+00 0.000000000000D+00 0.000000000000D+00 0.000000000000D+00
26 19  3 20  5 59 44.0 0.153917819262D-03 0.101181285572D-10 0.000000000000D+00
    0.430000000000D+02-0.778125000000D+02 0.470376735936D-08 0.164519340461D+01
   -0.396184623241D-05 0.371123582590D-02 0.960379838944D-05 0.515357164574D+04
    0.280784000000D+06-0.689178705216D-07 0.243262252255D+01-0.372529029846D-07
    0.952313798344D+00 0.190656250000D+03 0.143356919231D+00-0.818426947910D-08
   -0.635740766869D-09 0.100000000000D+01 0.204500000000D+04 0.000000000000D+00
    0.200000000000D+01 0.000000000000D+00 0.745058059692D-08 0.430000000000D+02
    0.273618000000D+06 0.400000000000D+01 0.000000000000D+00 0.000000000000D+00
 1 19  3 20  6  0  0.0-0.184355303645D-03-0.761701812735D-11 0.000000000000D+00
    0.143000000000D+03 0.260312500000D+02 0.481234331056D-08-0.229126396697D+01
    0.122375786305D-05 0.852228491567D-02 0.181235373020D-05 0.515365204239D+04
    0.280800000000D+06 0.173225998878D-06-0.172716411319D+01-0.109896063805D-06
    0.974390706781D+00 0.351468750000D+03 0.683833233930D+00-0.845106630655D-08
    0.254296306748D-09 0.100000000000D+01 0.204500000000D+04 0.000000000000D+00
    0.200000000000D+01 0.000000000000D+00 0.558793544769D-08 0.143000000000D+03
    0.273618000000D+06 0.400000000000D+01 0.000000000000D+00 0.000000000000D+00
 2 19  3 20  6  0  0.0-0.168005470186D-03-0.966338120634D-11 0.000000000000D+00
    0.360000000000D+02 0.391250000000D+02 0.525236165672D-08-0.199762568520D+01
    0.239536166191D-05 0.189250790281D-01 0.817701220512D-06 0.515366936684D+04
    0.280800000000D+06 0.251457095146D-06-0.179451137562D+01 0.106170773506D-06
    0.953522123327D+00 0.355531250000D+03-0.175799085608D+01-0.857392823406D-08
    0.353943319098D-09 0.100000000000D+01 0.204500000000D+04 0.000000000000D+00
    0.200000000000D+01 0.000000000000D+00-0.204890966415D-07 0.360000000000D+02
    0.273630000000D+06 0.000000000000D+00 0.000000000000D+00 0.000000000000D+00
 3 19  3 20  6  0  0.0 0.186854042113D-03 0.909494701773D-12 0.000000000000D+00
    0.890000000000D+02-0.110250000000D+03 0.445625704957D-08 0.304563972950D+01
   -0.582821667194D-05 0.193964922801D-02 0.884570181370D-05 0.515356534195D+04
    0.280800000000D+06-0.100582838059D-06-0.684216034241D+00-0.298023223877D-07
    0.962675632470D+00 0.207437500000D+03 0.585554577304D+00-0.811033782813D-08
   -0.529307762079D-09 0.100000000000D+01 0.204500000000D+04 0.000000000000D+00
    0.200000000000D+01 0.000000000000D+00 0.232830643654D-08 0.890000000000D+02
    0.273618000000D+06 0.400000000000D+01 0.000000000000D+00 0.000000000000D+00
 5 19  3 20  6  0  0.0 0.118277966976D-05 0.000000000000D+00 0.000000000000D+00
    0.107000000000D+03-0.126781250000D+03 0.490734741732D-08 0.659084884937D+00
   -0.632554292679D-05 0.556919246446D-02 0.921450555325D-05 0.515365571022D+04
    0.280800000000D+06 0.316649675369D-07-0.710108316416D+00 0.670552253723D-07
    0.949528882158D+00 0.193812500000D+03 0.706016369238D+00-0.846821013312D-08
   -0.656813048394D-09 0.100000000000D+01 0.204500000000D+04 0.000000000000D+00
    0.200000000000D+01 0.000000000000D+00-0.111758708954D-07 0.107000000000D+03
    0.273630000000D+06 0.000000000000D+00 0.000000000000D+00 0.000000000000D+00
 6 19  3 20  6  0  0.0 0.251010991633D-03-0.886757334229D-11 0.000000000000D+00
    0.103000000000D+03 0.251250000000D+02 0.492091922766D-08-0.209702403591D+01
    0.142864882946D-05 0.161588506307D-02 0.171177089214D-05 0.515354147339D+04
    0.280800000000D+06-0.391155481338D-07-0.173545166846D+01-0.316649675369D-07
    0.974055065097D+00 0.354593750000D+03-0.114916504110D+01-0.853785575572D-08
    0.196793914498D-09 0.100000000000D+01 0.204500000000D+04 0.000000000000D+00
    0.200000000000D+01 0.000000000000D+00 0.465661287308D-08 0.103000000000D+03
    0.273630000000D+06 0.000000000000D+00 0.000000000000D+00 0.000000000000D+00
 8 19  3 20  6  0  0.0-0.136823859066D-03-0.147792889038D-11 0.000000000000D+00
    0.110000000000D+02 0.810625000000D+02 0.406052628008D-08 0.149658196013D+00
    0.429339706898D-05 0.437414017506D-02 0.115819275379D-04 0.515371728706D+04
    0.280800000000D+06 0.223517417908D-07-0.279352922717D+01-0.894069671631D-07
    0.970491093832D+00 0.160625000000D+03-0.303385096361D+00-0.791247244338D-08
    0.373586989969D-09 0.100000000000D+01 0.204500000000D+04 0.000000000000D+00
    0.200000000000D+01 0.000000000000D+00 0.512227416039D-08 0.110000000000D+02
    0.273618000000D+06 0.400000000000D+01 0.000000000000D+00 0.000000000000D+00
10 19  3 20  6  0  0.0 0.931690447033D-04-0.875388650456D-11 0.000000000000D+00
    0.300000000000D+02-0.132156250000D+03 0.455590409842D-08 0.191937246797D+01
   -0.674650073051D-05 0.441438530106D-02 0.912696123123D-05 0.515367071343D+04
    0.280800000000D+06-0.502914190292D-07-0.687482579632D+00 0.111758708954D-07
    0.962707515307D+00 0.208312500000D+03-0.271793160270D+01-0.820712742211D-08
   -0.581809933564D-09 0.100000000000D+01 0.204500000000D+04 0.000000000000D+00
    0.200000000000D+01 0.000000000000D+00 0.186264514923D-08 0.300000000000D+02
    0.273600000000D+06 0.000000000000D+00 0.000000000000D+00 0.000000000000D+00
11 19  3 20  6  0  0.0-0.641914084554D-03 0.670752342558D-11 0.000000000000D+00
    0.280000000000D+02 0.116750000000D+03 0.594953353624D-08-0.299813534014D+01
    0.593811273575D-05 0.165324343834D-01 0.399723649025D-05 0.515369321442D+04
    0.280800000000D+06 0.193715095520D-06-0.217371744454D+01 0.258907675743D-06
    0.908620578300D+00 0.270031250000D+03 0.187123944516D+01-0.876500795491D-08
    0.526807657939D-09 0.100000000000D+01 0.204500000000D+04 0.000000000000D+00
    0.200000000000D+01 0.000000000000D+00-0.121071934700D-07 0.280000000000D+02
    0.273618000000D+06 0.400000000000D+01 0.000000000000D+00 0.000000000000D+00
